LEMUR-2-FINNIAN         
1 66782U 25276DX  26191.02067963  .00001985  00000+0  16176-3 0  9999
2 66782  97.5341 261.2995 0007909  19.7735 340.3794 15.00579499 23421
LEMUR-2-STARLIGHT       
1 66783U 25276DY  26191.13038764  .00004687  00000+0  38743-3 0  9995
2 66783  97.5230 260.9845 0014771  62.0755 298.1962 14.99316422 33630
LEMUR-2-TARTIFLETTE     
1 66784U 25276DZ  26190.12764786  .00003426  00000+0  28474-3 0  9994
2 66784  97.5229 260.0239 0013793  72.8301 287.4432 14.99294218 33480
LEMUR-2-VUKASIN         
1 66785U 25276EA  26190.76975532  .00003537  00000+0  28514-3 0  9996
2 66785  97.5243 260.9931 0003882  70.6713 289.4931 15.00515399 33537
LEMUR-2-HOTSPUR-TOM     
1 66786U 25276EB  26190.92258789  .00003839  00000+0  31921-3 0  9994
2 66786  97.5221 260.7678 0013867  61.7476 298.5146 14.99208118 33535
LEMUR-2-MYRA            
1 66787U 25276EC  26190.60174605  .00004214  00000+0  33740-3 0  9993
2 66787  97.5217 260.7505 0018574  71.1590 289.1646 15.00547888 33570
LEMUR-2 FIKRETDENGIZ    
1 67363U 26004A   26190.72270687  .00002433  00000+0  26761-3 0  9990
2 67363  97.8024 188.9369 0010439  71.1066 289.1282 14.88491309 26635
TWILIGHT-1 OBJECT B     
1 67364U 26004B   26191.22800616  .00001206  00000+0  13801-3 0  9996
2 67364  97.8071 189.4384 0010013  60.0405 300.1805 14.87783017 26716
LEMUR-2-MARIO-SOUSA     
1 67365U 26004C   26191.30826014  .00002461  00000+0  26918-3 0  9993
2 67365  97.7996 189.5087 0010049  70.7060 289.5243 14.88703210 26733
LEMUR-2-SONNENBLUME     
1 67367U 26004E   26191.24300419  .00001487  00000+0  16609-3 0  9997
2 67367  97.7993 189.4195 0009607  72.2436 287.9829 14.88438367 26722
LEMUR-2-WOBLER          
1 67368U 26004F   26191.23309648  .00002149  00000+0  23594-3 0  9997
2 67368  97.8048 189.5553 0009778  63.8201 296.4020 14.88677606 26728
LEMUR-2-GRAM-E-SUE      
1 67370U 26004H   26190.41824335  .00001831  00000+0  20248-3 0  9994
2 67370  97.7979 188.6239 0008810  76.6994 283.5205 14.88573884 26603
LEMUR-2-KATIE           
1 67387U 26004AA  26190.71733719  .00002879  00000+0  30258-3 0  9995
2 67387  97.8041 189.4514 0003888  45.7601 314.3936 14.90219671 26663
LEMUR-2-HCS-BAZUS       
1 67388U 26004AB  26190.71575423  .00001407  00000+0  15072-3 0  9995
2 67388  97.8032 189.4291 0003373  46.2274 313.9222 14.90243096 26668
